NORAD_CAT_ID,OBJECT_NAME,OBJECT_TYPE,EPOCH,MEAN_MOTION,ECCENTRICITY,INCLINATION,RA_OF_ASC_NODE,ARG_OF_PERICENTER,MEAN_ANOMALY,BSTAR,MEAN_MOTION_DOT,MEAN_MOTION_DDOT,TLE_LINE0,TLE_LINE1,TLE_LINE2,SEMIMAJOR_AXIS,PERIOD,APOGEE,PERIGEE,DECAYED
54776.0,STARLINK-5470,PAYLOAD,2023-07-07 04:07:21,15.08839931,0.0001277,53.2179,107.4888,84.4769,275.6368,-7.0779e-06,-4.01e-06,0.0,0 STARLINK-5470,1 54776U 22175U   23188.17177511 -.00000401  00000-0 -70779-5 0  9990,2 54776  53.2179 107.4888 0001277  84.4769 275.6368 15.08839931 30343,6917.881,95.438,540.629,538.862,0.0
54776.0,STARLINK-5470,PAYLOAD,2023-07-07 12:04:16,15.0884783,0.0001287,53.2185,106.0021,82.2632,277.8506,6.397e-05,7.31e-06,0.0,0 STARLINK-5470,1 54776U 22175U   23188.50296833  .00000731  00000-0  63970-4 0  9994,2 54776  53.2185 106.0021 0001287  82.2632 277.8506 15.08847830 30390,6917.856,95.437,540.612,538.831,0.0
54776.0,STARLINK-5470,PAYLOAD,2023-07-08 00:47:20,15.08856316,0.0001148,53.2177,103.6216,83.5979,276.5144,0.00025156,3.72e-05,0.0,0 STARLINK-5470,1 54776U 22175U   23189.03287709  .00003720  00000-0  25156-3 0  9999,2 54776  53.2177 103.6216 0001148  83.5979 276.5144 15.08856316 30476,6917.831,95.437,540.49,538.901,0.0
54776.0,STARLINK-5470,PAYLOAD,2023-07-08 11:55:03,15.08844137,0.0001197,53.2169,101.5404,92.5267,267.5862,0.00040503,6.165e-05,0.0,0 STARLINK-5470,1 54776U 22175U   23189.49657217  .00006165  00000-0  40503-3 0  9993,2 54776  53.2169 101.5404 0001197  92.5267 267.5862 15.08844137 30540,6917.868,95.437,540.561,538.905,0.0
54776.0,STARLINK-5470,PAYLOAD,2023-07-09 18:07:22,15.08841692,0.0001367,53.2176,95.8898,101.201,258.9136,-7.1485e-05,-1.425e-05,0.0,0 STARLINK-5470,1 54776U 22175U   23190.75512697 -.00001425  00000-0 -71485-4 0  9996,2 54776  53.2176  95.8898 0001367 101.2010 258.9136 15.08841692 30735,6917.875,95.437,540.686,538.795,0.0
54776.0,STARLINK-5470,PAYLOAD,2023-07-10 17:58:10,15.08833438,0.0001143,53.2169,91.4304,97.5409,262.5713,0.00029759,4.451e-05,0.0,0 STARLINK-5470,1 54776U 22175U   23191.74873251  .00004451  00000-0  29759-3 0  9998,2 54776  53.2169  91.4304 0001143  97.5409 262.5713 15.08833438 30889,6917.9,95.438,540.556,538.975,0.0
54776.0,STARLINK-5470,PAYLOAD,2023-07-11 00:19:42,15.08844312,0.0001166,53.2175,90.24,93.6134,266.4992,0.00017322,2.47e-05,0.0,0 STARLINK-5470,1 54776U 22175U   23192.01368591  .00002470  00000-0  17322-3 0  9997,2 54776  53.2175  90.2400 0001166  93.6134 266.4992 15.08844312 30927,6917.867,95.437,540.539,538.926,0.0
54776.0,STARLINK-5470,PAYLOAD,2023-07-11 17:48:57,15.08839197,0.0001102,53.2169,86.9711,96.7077,263.4041,7.3965e-05,8.9e-06,0.0,0 STARLINK-5470,1 54776U 22175U   23192.74232871  .00000890  00000-0  73965-4 0  9998,2 54776  53.2169  86.9711 0001102  96.7077 263.4041 15.08839197 31037,6917.883,95.438,540.51,538.985,0.0
54776.0,STARLINK-5470,PAYLOAD,2023-07-13 15:55:08,15.08836395,0.0001189,53.2169,78.3468,83.9988,276.114,8.5411e-05,1.072e-05,0.0,0 STARLINK-5470,1 54776U 22175U   23194.66329349  .00001072  00000-0  85411-4 0  9990,2 54776  53.2169  78.3468 0001189  83.9988 276.1140 15.08836395 31325,6917.891,95.438,540.579,538.934,0.0
54776.0,STARLINK-5470,PAYLOAD,2023-07-15 01:18:13,15.08856105,0.0001122,53.2169,72.1023,86.5197,273.5923,0.00031166,4.678e-05,0.0,0 STARLINK-5470,1 54776U 22175U   23196.05432396  .00004678  00000-0  31166-3 0  9994,2 54776  53.2169  72.1023 0001122  86.5197 273.5923 15.08856105 31536,6917.831,95.437,540.472,538.92,0.0
54776.0,STARLINK-5470,PAYLOAD,2023-07-15 21:58:15,15.0883854,0.0001329,53.2176,68.2346,94.4257,265.6887,1.1771e-05,-1.01e-06,0.0,0 STARLINK-5470,1 54776U 22175U   23196.91545366 -.00000101  00000-0  11771-4 0  9990,2 54776  53.2176  68.2346 0001329  94.4257 265.6887 15.08838540 31660,6917.885,95.438,540.669,538.83,0.0
54776.0,STARLINK-5470,PAYLOAD,2023-07-16 23:24:24,15.0884872,0.0001196,53.2174,63.4771,85.2076,274.9053,0.00010757,1.425e-05,0.0,0 STARLINK-5470,1 54776U 22175U   23197.97528924  .00001425  00000-0  10757-3 0  9999,2 54776  53.2174  63.4771 0001196  85.2076 274.9053 15.08848720 31823,6917.854,95.437,540.546,538.891,0.0
54776.0,STARLINK-5470,PAYLOAD,2023-07-17 21:39:48,15.0884953,0.0001095,53.2173,59.3152,79.8851,280.2264,0.00026555,3.942e-05,0.0,0 STARLINK-5470,1 54776U 22175U   23198.90264926  .00003942  00000-0  26555-3 0  9991,2 54776  53.2173  59.3152 0001095  79.8851 280.2264 15.08849530 31966,6917.851,95.437,540.474,538.959,0.0
54776.0,STARLINK-5470,PAYLOAD,2023-07-18 16:44:26,15.08837925,0.0001114,53.2169,55.7473,78.521,281.5907,-3.1837e-05,-7.94e-06,0.0,0 STARLINK-5470,1 54776U 22175U   23199.69753472 -.00000794  00000-0 -31837-4 0  9991,2 54776  53.2169  55.7473 0001114  78.5210 281.5907 15.08837925 32081,6917.887,95.438,540.522,538.981,0.0
54776.0,STARLINK-5470,PAYLOAD,2023-07-19 16:35:14,15.0883022,9.25e-05,53.2165,51.288,82.6175,277.4922,-0.00014194,-2.545e-05,0.0,0 STARLINK-5470,1 54776U 22175U   23200.69114138 -.00002545  00000-0 -14194-3 0  9996,2 54776  53.2165  51.2880 0000925  82.6175 277.4922 15.08830220 32234,6917.91,95.438,540.415,539.135,0.0
54776.0,STARLINK-5470,PAYLOAD,2023-07-20 22:47:33,15.08848717,8.49e-05,53.2173,45.6372,93.5818,266.5271,0.00021141,3.079e-05,0.0,0 STARLINK-5470,1 54776U 22175U   23201.94969358  .00003079  00000-0  21141-3 0  9998,2 54776  53.2173  45.6372 0000849  93.5818 266.5271 15.08848717 32423,6917.854,95.437,540.306,539.131,0.0
54776.0,STARLINK-5470,PAYLOAD,2023-07-21 16:16:48,15.08837308,9.28e-05,53.2165,42.3659,80.4834,279.6263,0.0001705,2.427e-05,0.0,0 STARLINK-5470,1 54776U 22175U   23202.67834454  .00002427  00000-0  17050-3 0  9997,2 54776  53.2165  42.3659 0000928  80.4834 279.6263 15.08837308 32539,6917.889,95.438,540.396,539.112,0.0
54776.0,STARLINK-5470,PAYLOAD,2023-07-23 15:58:22,15.08836597,8.79e-05,53.2169,33.4441,87.0867,273.0226,-2.2624e-05,-6.48e-06,0.0,0 STARLINK-5470,1 54776U 22175U   23204.66554258 -.00000648  00000-0 -22624-4 0  9998,2 54776  53.2169  33.4441 0000879  87.0867 273.0226 15.08836597 34995,6917.891,95.438,540.364,539.148,0.0
54776.0,STARLINK-5470,PAYLOAD,2023-07-25 12:29:10,15.08835335,9.49e-05,53.2173,25.1185,93.64,266.47,3.6675e-05,2.96e-06,0.0,0 STARLINK-5470,1 54776U 22175U   23206.52026481  .00000296  00000-0  36675-4 0  9995,2 54776  53.2173  25.1185 0000949  93.6400 266.4700 15.08835335 35271,6917.895,95.438,540.416,539.103,0.0
54776.0,STARLINK-5470,PAYLOAD,2023-07-26 12:19:57,15.08843041,8.82e-05,53.2171,20.6579,88.9847,271.1246,0.0001311,1.8e-05,0.0,0 STARLINK-5470,1 54776U 22175U   23207.51386081  .00001800  00000-0  13110-3 0  9990,2 54776  53.2171  20.6579 0000882  88.9847 271.1246 15.08843041 35422,6917.871,95.437,540.346,539.126,0.0
54776.0,STARLINK-5470,PAYLOAD,2023-07-26 13:55:20,15.08845159,9.88e-05,53.2177,20.3604,91.8618,268.2487,0.00017367,2.478e-05,0.0,0 STARLINK-5470,1 54776U 22175U   23207.58010222  .00002478  00000-0  17367-3 0  9998,2 54776  53.2177  20.3604 0000988  91.8618 268.2487 15.08845159 33277,6917.865,95.437,540.413,539.046,0.0
54776.0,STARLINK-5470,PAYLOAD,2023-07-26 20:16:52,15.08856166,9.05e-05,53.2173,19.1698,97.5387,262.5708,0.00031357,4.708e-05,0.0,0 STARLINK-5470,1 54776U 22175U   23207.84505572  .00004708  00000-0  31357-3 0  9997,2 54776  53.2173  19.1698 0000905  97.5387 262.5708 15.08856166 35474,6917.831,95.437,540.322,539.07,0.0
54776.0,STARLINK-5470,PAYLOAD,2023-07-27 04:13:49,15.08835938,0.0001223,53.2164,17.6852,102.2644,257.8485,2.2075e-05,6.3e-07,0.0,0 STARLINK-5470,1 54776U 22175U   23208.17626168  .00000063  00000-0  22075-4 0  9997,2 54776  53.2164  17.6852 0001223 102.2644 257.8485 15.08835938 33362,6917.893,95.438,540.604,538.912,0.0
54776.0,STARLINK-5470,PAYLOAD,2023-07-27 12:10:45,15.08833931,0.0001222,53.2179,16.2002,102.6154,257.4974,1.6439e-05,-2.6e-07,0.0,0 STARLINK-5470,1 54776U 22175U   23208.50746666 -.00000026  00000-0  16439-4 0  9997,2 54776  53.2179  16.2002 0001222 102.6154 257.4974 15.08833931 35574,6917.899,95.438,540.609,538.919,0.0
54776.0,STARLINK-5470,PAYLOAD,2023-07-28 04:04:36,15.08834694,0.000135,53.218,13.2217,86.3505,273.7642,3.0788e-05,2.02e-06,0.0,0 STARLINK-5470,1 54776U 22175U   23209.16986932  .00000202  00000-0  30788-4 0  9990,2 54776  53.2180  13.2217 0001350  86.3505 273.7642 15.08834694 35672,6917.897,95.438,540.696,538.828,0.0
54776.0,STARLINK-5470,PAYLOAD,2023-07-28 13:36:55,15.08838282,9.72e-05,53.2168,11.4394,90.4822,269.6281,7.2197e-05,8.61e-06,0.0,0 STARLINK-5470,1 54776U 22175U   23209.56730842  .00000861  00000-0  72197-4 0  9992,2 54776  53.2168  11.4394 0000972  90.4822 269.6281 15.08838282 33578,6917.886,95.438,540.423,539.078,0.0
54776.0,STARLINK-5470,PAYLOAD,2023-07-29 18:13:51,15.08850228,8.56e-05,53.2166,6.0886,86.58,273.529,0.00031208,4.684e-05,0.0,0 STARLINK-5470,1 54776U 22175U   23210.75962495  .00004684  00000-0  31208-3 0  9990,2 54776  53.2166   6.0886 0000856  86.5800 273.5290 15.08850228 33753,6917.849,95.437,540.306,539.122,0.0
54776.0,STARLINK-5470,PAYLOAD,2023-07-30 16:29:15,15.08844007,0.0001059,53.2166,1.9257,77.5909,282.5201,0.000159,2.244e-05,0.0,0 STARLINK-5470,1 54776U 22175U   23211.68698905  .00002244  00000-0  15900-3 0  9996,2 54776  53.2166   1.9257 0001059  77.5909 282.5201 15.08844007 33890,6917.868,95.437,540.466,539.001,0.0
54776.0,STARLINK-5470,PAYLOAD,2023-07-31 19:30:48,15.08850642,0.0001038,53.2177,356.8693,80.5465,279.5645,0.00027008,4.014e-05,0.0,0 STARLINK-5470,1 54776U 22175U   23212.81306514  .00004014  00000-0  27008-3 0  9993,2 54776  53.2177 356.8693 0001038  80.5465 279.5645 15.08850642 34066,6917.848,95.437,540.431,538.995,0.0
54776.0,STARLINK-5470,PAYLOAD,2023-08-01 19:21:36,15.08842281,0.000105,53.2172,352.4084,76.086,284.0248,0.00011672,1.57e-05,0.0,0 STARLINK-5470,1 54776U 22175U   23213.80667227  .00001570  00000-0  11672-3 0  9998,2 54776  53.2172 352.4084 0001050  76.0860 284.0248 15.08842281 34217,6917.873,95.437,540.465,539.012,0.0
